{"fetched_at":"2026-06-08T03:44:04Z","count":2050,"tles":[{"name":"EOS-7","line1":"1 55562U 23019A   24363.45300977  .04873498  38898-5  83598-3 0  9991","line2":"2 55562  37.1672  46.7039 0002842 101.5126 258.5981 16.31915089106730","category":"Other"},{"name":"COSMOS 2251 DEB","line1":"1 34853U 93036ABX 23179.44039430  .01228531  00000+0  97187-2 0  9998","line2":"2 34853  74.0405 341.3594 0011692 248.4678 111.5299 15.68573199763224","category":"Other"},{"name":"ONEWEB-0402","line1":"1 50482U 21132P   26158.22911027 -.00000185  00000+0 -50105-3 0  9993","line2":"2 50482  87.9167 337.4129 0001712  75.6263 284.5059 13.18686160220320","category":"Other"},{"name":"FENGYUN 1C DEB","line1":"1 30829U 99025AVP 26100.50195817  .00000601  00000+0  37105-3 0  9997","line2":"2 30829  98.7868  95.0701 0035807 359.9129   0.2029 14.08846712981050","category":"Weather"},{"name":"STARLINK-1866","line1":"1 47152U 20088AG  23362.07459947  .00016191  00000+0  11031-2 0  9993","line2":"2 47152  53.0542 304.6865 0001292  89.8190 270.2947 15.06407655171112","category":"Starlink"},{"name":"ORBITER SN3","line1":"1 56960U 23084AE  26158.47743256  .00008618  00000+0  26020-3 0  9998","line2":"2 56960  97.6262 298.9740 0007951  16.7576 343.3927 15.34493290166007","category":"Other"},{"name":"COSMOS 2251 DEB","line1":"1 38065U 93036BRX 23179.42301870  .00013120  00000+0  25411-2 0  9991","line2":"2 38065  74.0280 333.6753 0009031 245.9921 144.7157 14.63314596617555","category":"Other"},{"name":"GEESAT-1 06","line1":"1 52790U 22058F   26158.43006345  .00002016  00000+0  28197-3 0  9995","line2":"2 52790  50.0041 247.9458 0033620 109.9264 250.5300 14.81339131218481","category":"Other"},{"name":"STARLINK-31096","line1":"1 58592U 23200D   26158.32889738  .00063802  00000+0  19223-2 0  9993","line2":"2 58592  42.9978  22.2820 0012400 248.8670 111.0858 15.33408014137327","category":"Starlink"},{"name":"STARLINK-34697","line1":"1 64791U 25150B   26156.71009346  .00009602  00000+0  81119-3 0  9999","line2":"2 64791  70.0003 272.4328 0003349 270.2295  89.8481 14.98341571 49704","category":"Starlink"},{"name":"2024-205A","line1":"1 61894U 24205A   26158.51773510  .00008292  00000+0  48828-3 0  9995","line2":"2 61894  97.4129 228.8915 0016611 185.0520 175.0545 15.11749349 86749","category":"Other"},{"name":"STARLINK-36605","line1":"1 67604U 26018R   26158.14279567  .00036481  00000+0  11256-2 0  9991","line2":"2 67604  97.2860 223.0950 0000557  88.7435 271.3871 15.33482690 21047","category":"Starlink"},{"name":"SL-12 R/B(2)","line1":"1 11568U 75123F   26105.12347968  .00000126  00000+0  00000+0 0  9990","line2":"2 11568   2.7062 265.1092 0013570 214.2026 318.8042  1.00487377121364","category":"Other"},{"name":"ORBCOMM FM119","line1":"1 41180U 15081B   26104.62722104  .00000204  00000+0  79539-4 0  9998","line2":"2 41180  46.9998 211.8518 0001258 304.0251  56.0515 14.58728475549728","category":"Other"},{"name":"STARLINK-4718","line1":"1 53773U 22111A   26157.56240701  .00001693  00000+0  12441-3 0  9991","line2":"2 53773  53.1719 245.0428 0000919  97.9478 262.1618 15.08845551207266","category":"Starlink"},{"name":"STARLINK-31917","line1":"1 59669U 24084R   26157.55429426  .00002799  00000+0  11117-3 0  9991","line2":"2 59669  42.9998 259.9440 0001752 241.3868 118.6808 15.27589721117961","category":"Starlink"},{"name":"STARLINK-35329","line1":"1 65908U 25224AC  26157.72030833  .00035019  00000+0  10406-2 0  9990","line2":"2 65908  53.1602 316.5049 0000574  95.1495 264.9573 15.34464983 38514","category":"Starlink"},{"name":"FENGYUN 1C DEB","line1":"1 31788U 99025CGP 26104.32279141  .00001966  00000+0  17546-2 0  9990","line2":"2 31788 102.5622 283.1847 0466806 176.5312 311.0313 13.45880957922538","category":"Weather"},{"name":"STARLINK-2462","line1":"1 48121U 21027AF  26158.11993126  .00003852  00000+0  13573-3 0  9991","line2":"2 48121  53.1532  98.9387 0002646 106.2793 253.8500 15.31729560286353","category":"Starlink"},{"name":"2025-009DM","line1":"1 63002U 25009DM  26120.63486468  .15714382  25502-5  56124-3 0  9994","line2":"2 63002  97.3806 214.5358 0013850 275.5212  84.4509 16.42995914130021","category":"Other"},{"name":"QIANFAN-126","line1":"1 68653U 26075T   26158.16252656  .00000068  00000+0  77014-4 0  9999","line2":"2 68653  88.9886 321.9871 0010677  38.5991 321.5926 13.57832587  8470","category":"Other"},{"name":"SL-12 R/B(2)","line1":"1 28119U 03053E   26104.39460990  .00000062  00000+0  00000+0 0  9991","line2":"2 28119  13.6281  13.8263 0219487 301.9843 226.8579  1.00051630 84081","category":"Other"},{"name":"STARLINK-1169","line1":"1 45061U 20006T   26158.44483591  .00043205  00000+0  11288-2 0  9999","line2":"2 45061  53.1545 221.6980 0005594 329.2675  30.8001 15.38366270350322","category":"Starlink"},{"name":"STARLINK-5495","line1":"1 55635U 23021H   26158.16479008  .00001063  00000+0  96893-4 0  9997","line2":"2 55635  69.9989 318.8698 0002981 267.4486  92.6332 14.98323408182194","category":"Starlink"},{"name":"COSMOS 2251 DEB","line1":"1 34990U 93036AFN 26102.05289781  .00000833  00000+0  25795-3 0  9991","line2":"2 34990  74.0474  28.2329 0014344  66.4331 293.8331 14.42724055890817","category":"Other"},{"name":"STARLINK-3295","line1":"1 50840U 22001AP  26158.23630587 -.00000423  00000+0 -84961-5 0  9991","line2":"2 50840  53.1705 137.0932 0001241  81.2238 278.8894 15.08828899243774","category":"Starlink"},{"name":"STARLINK-30168","line1":"1 57513U 23113U   26158.49976968 -.00000603  00000+0 -12378-4 0  9996","line2":"2 57513  43.0052 228.5741 0001709 283.9540  76.1121 15.27569284157251","category":"Starlink"},{"name":"STARLINK-33841","line1":"1 63771U 25089W   26157.57947590  .00021216  00000+0  77761-3 0  9997","line2":"2 63771  42.9961 263.0915 0000984 261.9763  98.0977 15.27608408 62502","category":"Starlink"},{"name":"STARLINK-5821","line1":"1 75821C 23088X   23185.71923611 -.00987125  00000-0 -56496-2 0  1856","line2":"2 75821  42.9984  44.4826 0001515 262.8630  93.1915 15.78851407    13","category":"Starlink"},{"name":"FENGYUN 1C DEB","line1":"1 30923U 99025AZM 23178.13782431  .00008292  00000+0  29487-2 0  9994","line2":"2 30923  98.8887 240.3530 0025036 272.0747  87.7569 14.34414419842178","category":"Weather"},{"name":"ONEWEB-0141","line1":"1 47287U 20100AF  26158.25687192 -.00000366  00000+0 -10534-2 0  9994","line2":"2 47287  87.8950 352.6220 0002097  91.8376 268.2993 13.12443859263379","category":"Other"},{"name":"2023-085AD","line1":"1 57031U 23085AD  26158.44566073  .00016148  00000+0  48335-3 0  9996","line2":"2 57031  97.4941 270.9229 0009780 113.5995 246.6276 15.34571826165287","category":"Other"},{"name":"LOPEN","line1":"1 60473U 24149F   26158.51091470  .00015996  00000+0  41052-3 0  9993","line2":"2 60473  97.3772 241.8054 0000101  33.6946 326.4307 15.39410280100777","category":"Other"},{"name":"STARLINK-36040","line1":"1 66614U 25270AC  26158.01926264  .00030120  00000+0  10988-2 0  9994","line2":"2 66614  43.0012 272.0408 0002380 269.2254  90.8325 15.27604387 31207","category":"Starlink"},{"name":"SL-4 R/B","line1":"1 58659U 23209B   24026.61170216  .00081310  00000+0  51187-3 0  9994","line2":"2 58659  96.7570 285.0031 0002163 207.1100 153.0055 15.76454933  4753","category":"Other"},{"name":"STARLINK-34631","line1":"1 64855U 25152P   26157.85479160  .00006268  00000+0  43775-3 0  9994","line2":"2 64855  97.3952  12.7049 0002923  83.7120 276.4440 15.05670303 48835","category":"Starlink"},{"name":"STARLINK-32566","line1":"1 61958U 24209V   26158.48350735  .00050498  00000+0  91060-3 0  9997","line2":"2 61958  53.1610  81.1306 0001570  55.1121 305.0036 15.49294363 88722","category":"Starlink"},{"name":"STARLINK-36625","line1":"1 67668U 26022W   26158.35585816  .00020112  00000+0  62315-3 0  9993","line2":"2 67668  97.2849 191.4156 0001410 102.2295 257.9106 15.33469382 19316","category":"Starlink"},{"name":"EKRAN 2 DEB","line1":"1 12996U 77092J   26105.15407311 -.00000157  00000+0  00000+0 0  9990","line2":"2 12996   4.4673 275.7290 0012587 298.2648  29.6595  1.00056575 83878","category":"Other"},{"name":"STARLINK-4770","line1":"1 53849U 22114AH  26158.51090523  .00000860  00000+0  72117-4 0  9991","line2":"2 53849  53.1713 250.7091 0001155  90.1726 269.9398 15.08832709206537","category":"Starlink"},{"name":"STARLINK-31833","line1":"1 59733U 24090D   26158.37005273 -.00000931  00000+0 -24325-4 0  9995","line2":"2 59733  43.0026  37.1952 0001170 275.2389  84.8329 15.27552440117150","category":"Starlink"},{"name":"ELECTRON R/B","line1":"1 65972U 25229B   25312.05680473  .00007550  00000+0  57453-3 0  9998","line2":"2 65972  41.9280  71.4275 0038585  44.3366 316.0539 15.01793365  3679","category":"Other"},{"name":"FENGYUN 1C DEB","line1":"1 31914U 99025CLR 26104.09747266  .00000316  00000+0  69119-4 0  9996","line2":"2 31914  99.0121 342.0265 0182535  58.8948 303.0014 14.55949066702537","category":"Weather"},{"name":"ONEWEB-0207","line1":"1 48242U 21031AJ  26158.13065074  .00000292  00000+0  75361-3 0  9992","line2":"2 48242  87.8961 291.7033 0002150 101.6848 258.4523 13.14502068246979","category":"Other"},{"name":"STARLINK-33622","line1":"1 63066U 25035Q   26158.27445234  .00021866  00000+0  80052-3 0  9999","line2":"2 63066  43.0037   0.8853 0007482 266.1731  93.8266 15.27608780 73436","category":"Starlink"},{"name":"STARLINK-36684","line1":"1 68718U 26081V   26158.20003156  .00034442  00000+0  10261-2 0  9994","line2":"2 68718  53.1582 337.8649 0000264 104.0279 256.0753 15.34390225  8450","category":"Starlink"},{"name":"ONEWEB-0056","line1":"1 45159U 20008AE  26158.35699352  .00000362  00000+0  10009-2 0  9990","line2":"2 45159  87.8844  38.2180 0001935  90.8472 269.2877 13.10371977306891","category":"Other"},{"name":"STARLINK-30059","line1":"1 55714U 23026V   23266.96974499  .06917944  88448-5  36445-2 0  9992","line2":"2 55714  42.9897 109.1961 0016471 261.9297  97.9719 16.18790309 33748","category":"Starlink"}]}